[
  {
    "name": "2024-199AK",
    "line1": "1 61768U 24199AK  26062.16284368  .00027515  00000+0  58545-3 0  9996",
    "line2": "2 61768  97.3144 295.9827 0005119 331.5697  28.5272 15.44925513117947",
    "category": "active"
  },
  {
    "name": "KOSAR",
    "line1": "1 61769U 24199AL  26062.12248750  .00034603  00000+0  67385-3 0  9996",
    "line2": "2 61769  97.3136 296.6133 0004874 332.8404  27.2591 15.47471881117985",
    "category": "active"
  },
  {
    "name": "SITRO-AIS 48",
    "line1": "1 61771U 24199AN  26062.14596274  .00043082  00000+0  78807-3 0  9990",
    "line2": "2 61771  97.3104 296.1014 0007942 330.2202  29.8596 15.49207432117965",
    "category": "active"
  },
  {
    "name": "HYPERVIEW 1G (RS66S)",
    "line1": "1 61772U 24199AP  26062.13891860  .00073525  00000+0  10140-2 0  9999",
    "line2": "2 61772  97.3102 298.0452 0007214 315.7926  44.2752 15.56935943118086",
    "category": "active"
  },
  {
    "name": "SITRO-AIS 47",
    "line1": "1 61773U 24199AQ  26062.15926912  .00043572  00000+0  78503-3 0  9996",
    "line2": "2 61773  97.3111 296.2464 0007865 329.4065  30.6726 15.49639164117973",
    "category": "active"
  },
  {
    "name": "SITRO-AIS 46",
    "line1": "1 61774U 24199AR  26062.17464939  .00046038  00000+0  80184-3 0  9993",
    "line2": "2 61774  97.3092 296.5008 0007675 332.1013  27.9826 15.50591382117995",
    "category": "active"
  },
  {
    "name": "2024-199AS",
    "line1": "1 61775U 24199AS  26062.16518758  .00020042  00000+0  48748-3 0  9999",
    "line2": "2 61775  97.3163 294.2119 0014652 307.9142  52.0779 15.40886979117825",
    "category": "active"
  },
  {
    "name": "SITRO-AIS 40",
    "line1": "1 61776U 24199AT  26062.16758362  .00047052  00000+0  81498-3 0  9996",
    "line2": "2 61776  97.3096 296.5140 0007498 330.8649  29.2183 15.50744708121146",
    "category": "active"
  },
  {
    "name": "2024-199AU",
    "line1": "1 61777U 24199AU  26062.12936484  .00020694  00000+0  49163-3 0  9992",
    "line2": "2 61777  97.3164 294.2527 0014301 309.4714  50.5267 15.41597939117825",
    "category": "active"
  },
  {
    "name": "SITRO-AIS 39",
    "line1": "1 61778U 24199AV  26062.06067763  .00045141  00000+0  83010-3 0  9994",
    "line2": "2 61778  97.3109 295.9136 0008230 330.6298  29.4490 15.49043732117947",
    "category": "active"
  },
  {
    "name": "ALTAIR (RS65S)",
    "line1": "1 61779U 24199AW  26062.11715774  .00014925  00000+0  44297-3 0  9993",
    "line2": "2 61779  97.3194 292.2259 0012718 333.9459  26.1143 15.34819802120833",
    "category": "active"
  },
  {
    "name": "SITRO-AIS 37",
    "line1": "1 61780U 24199AX  26062.12366313  .00046273  00000+0  83171-3 0  9992",
    "line2": "2 61780  97.3115 296.1854 0008393 329.6920  30.3845 15.49689399117969",
    "category": "active"
  },
  {
    "name": "ASRTU-1 (AO-123)",
    "line1": "1 61781U 24199AY  26062.15804963  .00010974  00000+0  33600-3 0  9995",
    "line2": "2 61781  97.3168 291.8050 0013447 335.6356  24.4250 15.33901798117668",
    "category": "active"
  },
  {
    "name": "TUSUR GO (RS78S)",
    "line1": "1 61782U 24199AZ  26062.12941804  .00154723  00000+0  13447-2 0  9996",
    "line2": "2 61782  97.3044 299.6593 0004427 314.6924  45.3976 15.68579333118196",
    "category": "active"
  },
  {
    "name": "SAMSAT-IONOSPHERE (RS7*)",
    "line1": "1 61784U 24199BB  26062.14700536  .00041634  00000+0  76917-3 0  9993",
    "line2": "2 61784  97.3129 296.1219 0009247 321.9994  38.0603 15.48918222121105",
    "category": "active"
  },
  {
    "name": "RTU MIREA 1 (RS51S)",
    "line1": "1 61785U 24199BC  26062.15286365  .00047512  00000+0  82211-3 0  9999",
    "line2": "2 61785  97.3129 296.5536 0008961 317.8651  42.1911 15.50757976117987",
    "category": "active"
  },
  {
    "name": "SITRO-AIS 38",
    "line1": "1 61786U 24199BD  26062.13777380  .00019784  00000+0  42943-3 0  9998",
    "line2": "2 61786  97.3124 295.5512 0009690 324.8568  35.2040 15.44365083117928",
    "category": "active"
  },
  {
    "name": "2024-199BE",
    "line1": "1 61787U 24199BE  26062.15922668  .00012272  00000+0  36960-3 0  9999",
    "line2": "2 61787  97.3178 291.9891 0013275 334.1151  25.9426 15.34397621120823",
    "category": "active"
  },
  {
    "name": "SITRO-AIS 45",
    "line1": "1 61788U 24199BF  26062.09410320  .00042446  00000+0  77506-3 0  9997",
    "line2": "2 61788  97.3106 295.9935 0008168 330.6754  29.4038 15.49259487117932",
    "category": "active"
  },
  {
    "name": "SITRO-AIS 17",
    "line1": "1 61789U 24199BG  26062.12943568  .00004101  00000+0  35761-3 0  9990",
    "line2": "2 61789  97.3330 268.2941 0008005  76.1692 284.0421 14.97341952116165",
    "category": "active"
  },
  {
    "name": "SITRO-AIS 18",
    "line1": "1 61790U 24199BH  26062.13972519  .00003145  00000+0  27566-3 0  9992",
    "line2": "2 61790  97.3322 268.2615 0007592  73.0462 287.1592 14.97297579116165",
    "category": "active"
  },
  {
    "name": "2024-203A",
    "line1": "1 61869U 24203A   26062.16577870  .00015005  00000+0  56653-3 0  9996",
    "line2": "2 61869  97.4308 132.7755 0011450 348.8320  11.2663 15.27052420 72761",
    "category": "active"
  },
  {
    "name": "2024-203B",
    "line1": "1 61870U 24203B   26062.18165022  .00015278  00000+0  57328-3 0  9994",
    "line2": "2 61870  97.4289 132.8040 0010979 347.5079  12.5886 15.27258019 72775",
    "category": "active"
  },
  {
    "name": "2024-203C",
    "line1": "1 61871U 24203C   26062.16970756  .00011865  00000+0  49815-3 0  9991",
    "line2": "2 61871  97.4352 132.3054 0012015   7.0817 353.0587 15.23545463 72711",
    "category": "active"
  },
  {
    "name": "2024-203D",
    "line1": "1 61872U 24203D   26062.20204009  .00015301  00000+0  61105-3 0  9993",
    "line2": "2 61872  97.4363 132.9385 0011167   5.2725 354.8629 15.25178890 72750",
    "category": "active"
  },
  {
    "name": "2024-205A",
    "line1": "1 61894U 24205A   26062.16727171  .00009797  00000+0  59987-3 0  9991",
    "line2": "2 61894  97.4221 135.4541 0017987 159.9646 200.2294 15.10259670 72194",
    "category": "active"
  },
  {
    "name": "2024-205B",
    "line1": "1 61895U 24205B   26062.17984572  .00013647  00000+0  50227-3 0  9990",
    "line2": "2 61895  97.4213 140.1495 0011135  56.7610 303.4695 15.27920922 72487",
    "category": "active"
  },
  {
    "name": "2024-205C",
    "line1": "1 61896U 24205C   26062.11985219  .00011158  00000+0  59239-3 0  9991",
    "line2": "2 61896  97.4216 136.0541 0038923 355.8929   4.1978 15.14825538 72209",
    "category": "active"
  },
  {
    "name": "2024-205D",
    "line1": "1 61897U 24205D   26062.15691993  .00008342  00000+0  42848-3 0  9998",
    "line2": "2 61897  97.4192 135.8953 0013513  70.7661 289.5033 15.16662499 72209",
    "category": "active"
  },
  {
    "name": "2024-205E",
    "line1": "1 61898U 24205E   26062.16264948  .00009382  00000+0  51648-3 0  9999",
    "line2": "2 61898  97.4203 136.1213 0043828 356.8228   3.2718 15.13415044 72216",
    "category": "active"
  },
  {
    "name": "2024-205F",
    "line1": "1 61899U 24205F   26062.19856535  .00012353  00000+0  62760-3 0  9991",
    "line2": "2 61899  97.4196 136.0863 0008070 261.1256  98.9063 15.16993517 72221",
    "category": "active"
  },
  {
    "name": "2024-205G",
    "line1": "1 61900U 24205G   26062.20014966  .00009309  00000+0  58538-3 0  9995",
    "line2": "2 61900  97.4229 135.4241 0021025 151.5899 208.6481 15.09252034 72165",
    "category": "active"
  },
  {
    "name": "2024-205H",
    "line1": "1 61901U 24205H   26062.15942185  .00016594  00000+0  59278-3 0  9999",
    "line2": "2 61901  97.4189 140.3415 0011073  61.4609 298.7745 15.28856084 72506",
    "category": "active"
  },
  {
    "name": "2024-205J",
    "line1": "1 61902U 24205J   26062.22203705  .00010188  00000+0  61934-3 0  9991",
    "line2": "2 61902  97.4228 135.7499 0014396 170.6819 189.4680 15.10560301 72181",
    "category": "active"
  },
  {
    "name": "2024-205K",
    "line1": "1 61903U 24205K   26062.18589118  .00017426  00000+0  64531-3 0  9990",
    "line2": "2 61903  97.4192 139.5040 0011185  59.8031 300.4314 15.27660420 72442",
    "category": "active"
  },
  {
    "name": "2024-205L",
    "line1": "1 61904U 24205L   26056.74567068  .00015358  00000+0  82868-3 0  9991",
    "line2": "2 61904  97.4237 131.0819 0041356  15.2050 345.0414 15.14089901 71400",
    "category": "active"
  },
  {
    "name": "2024-205M",
    "line1": "1 61905U 24205M   26061.79307240  .00010001  00000+0  37345-3 0  9997",
    "line2": "2 61905  97.3938 137.1144 0003919 340.6419  19.4671 15.27571470 72255",
    "category": "active"
  },
  {
    "name": "2024-205N",
    "line1": "1 61906U 24205N   26062.22159214  .00024551  00000+0  75817-3 0  9994",
    "line2": "2 61906  97.4231 142.1784 0010089  62.7727 297.4542 15.33489686 72618",
    "category": "active"
  },
  {
    "name": "2024-205P",
    "line1": "1 61907U 24205P   26062.20275299  .00006942  00000+0  34829-3 0  9997",
    "line2": "2 61907  97.4222 136.9413 0014226  69.9500 290.3264 15.17545662 72267",
    "category": "active"
  },
  {
    "name": "2024-205Q",
    "line1": "1 61908U 24205Q   26062.20275804  .00008543  00000+0  42628-3 0  9995",
    "line2": "2 61908  97.4225 136.9680 0013795  71.0146 289.2582 15.17671680 72267",
    "category": "active"
  },
  {
    "name": "HAIYANG 4-01",
    "line1": "1 61936U 24208A   26062.17581303  .00000711  00000+0  11761-3 0  9992",
    "line2": "2 61936  98.0070  71.3678 0002011 116.3998 243.7417 14.73316927 69831",
    "category": "active"
  },
  {
    "name": "SUPERVIEW NEO-2 03",
    "line1": "1 62079U 24218B   26061.58248725  .00003461  00000+0  16522-3 0  9999",
    "line2": "2 62079  97.4386  70.4307 0001637  89.5472 270.5951 15.19722450 70255",
    "category": "active"
  }
]